start=new Date('2023-02-28T00:00:00.000Z').valueOf();
sats=[{"SITE":"AFWTR","MEAN_ANOMALY":"272.8400","DECAY_DATE":null,"FILE":"3846812","PERIOD":"95.436","SEMIMAJOR_AXIS":"6917.814","RA_OF_ASC_NODE":"53.2760","TLE_LINE1":"1 52538U 22051F   23058.88360547  .00017051  00000-0  10862-2 0  9995","MEAN_MOTION":"15.08861595","TLE_LINE2":"2 52538  53.2149  53.2760 0001431  87.2756 272.8400 15.08861595 44500","EPHEMERIS_TYPE":"0","COUNTRY_CODE":"US","APOAPSIS":"540.669","ECCENTRICITY":"0.00014310","TIME_SYSTEM":"UTC","ELEMENT_SET_NO":"999","EPOCH":"2023-02-27T21:12:23.512608","PERIAPSIS":"538.689","LAUNCH_DATE":"2022-05-13","RCS_SIZE":"LARGE","GP_ID":"227194972","INCLINATION":"53.2149","ARG_OF_PERICENTER":"87.2756","REV_AT_EPOCH":"4450","OBJECT_TYPE":"PAYLOAD","CLASSIFICATION_TYPE":"U","BSTAR":"0.00108620000000","REF_FRAME":"TEME","MEAN_ELEMENT_THEORY":"SGP4","CENTER_NAME":"EARTH","NORAD_CAT_ID":"52538","OBJECT_NAME":"STARLINK-3933","OBJECT_ID":"2022-051F","MEAN_MOTION_DDOT":"0.0000000000000","MEAN_MOTION_DOT":"0.00017051"},{"REV_AT_EPOCH":"4447","OBJECT_TYPE":"PAYLOAD","ARG_OF_PERICENTER":"97.2470","INCLINATION":"53.2168","CLASSIFICATION_TYPE":"U","PERIAPSIS":"539.130","LAUNCH_DATE":"2022-05-13","RCS_SIZE":"LARGE","GP_ID":"227195723","OBJECT_NAME":"STARLINK-3757","MEAN_MOTION_DOT":"0.00046980","OBJECT_ID":"2022-051G","MEAN_MOTION_DDOT":"0.0000000000000","MEAN_ELEMENT_THEORY":"SGP4","REF_FRAME":"TEME","CENTER_NAME":"EARTH","BSTAR":"0.00294700000000","NORAD_CAT_ID":"52539","PERIOD":"95.435","TLE_LINE1":"1 52539U 22051G   23058.68856665  .00046980  00000-0  29470-2 0  9993","SEMIMAJOR_AXIS":"6917.753","RA_OF_ASC_NODE":"54.1518","MEAN_ANOMALY":"262.8602","SITE":"AFWTR","FILE":"3846812","DECAY_DATE":null,"ECCENTRICITY":"0.00007050","TIME_SYSTEM":"UTC","ELEMENT_SET_NO":"999","EPOCH":"2023-02-27T16:31:32.158560","TLE_LINE2":"2 52539  53.2168  54.1518 0000705  97.2470 262.8602 15.08881737 44479","MEAN_MOTION":"15.08881737","COUNTRY_CODE":"US","EPHEMERIS_TYPE":"0","APOAPSIS":"540.106"},{"FILE":"3846812","DECAY_DATE":null,"MEAN_ANOMALY":"272.4481","SITE":"AFWTR","TLE_LINE1":"1 52540U 22051H   23058.67384931  .00033851  00000-0  21329-2 0  9994","SEMIMAJOR_AXIS":"6917.780","RA_OF_ASC_NODE":"54.2184","PERIOD":"95.435","COUNTRY_CODE":"US","EPHEMERIS_TYPE":"0","APOAPSIS":"540.812","TLE_LINE2":"2 52540  53.2170  54.2184 0001687  87.6704 272.4481 15.08872736 44478","MEAN_MOTION":"15.08872736","TIME_SYSTEM":"UTC","ELEMENT_SET_NO":"999","EPOCH":"2023-02-27T16:10:20.580384","ECCENTRICITY":"0.00016870","GP_ID":"227196473","RCS_SIZE":"LARGE","LAUNCH_DATE":"2022-05-13","PERIAPSIS":"538.478","CLASSIFICATION_TYPE":"U","REV_AT_EPOCH":"4447","OBJECT_TYPE":"PAYLOAD","ARG_OF_PERICENTER":"87.6704","INCLINATION":"53.2170","NORAD_CAT_ID":"52540","REF_FRAME":"TEME","MEAN_ELEMENT_THEORY":"SGP4","CENTER_NAME":"EARTH","BSTAR":"0.00213290000000","MEAN_MOTION_DOT":"0.00033851","OBJECT_ID":"2022-051H","MEAN_MOTION_DDOT":"0.0000000000000","OBJECT_NAME":"STARLINK-3940"},{"PERIAPSIS":"537.855","LAUNCH_DATE":"2022-05-13","GP_ID":"227195222","RCS_SIZE":"LARGE","INCLINATION":"53.2168","ARG_OF_PERICENTER":"79.1197","REV_AT_EPOCH":"4440","OBJECT_TYPE":"PAYLOAD","CLASSIFICATION_TYPE":"U","BSTAR":"0.00312100000000","CENTER_NAME":"EARTH","MEAN_ELEMENT_THEORY":"SGP4","REF_FRAME":"TEME","NORAD_CAT_ID":"52541","OBJECT_NAME":"STARLINK-3845","OBJECT_ID":"2022-051J","MEAN_MOTION_DDOT":"0.0000000000000","MEAN_MOTION_DOT":"0.00049788","SITE":"AFWTR","MEAN_ANOMALY":"281.0084","DECAY_DATE":null,"FILE":"3846812","PERIOD":"95.435","SEMIMAJOR_AXIS":"6917.763","RA_OF_ASC_NODE":"59.0607","TLE_LINE1":"1 52541U 22051J   23058.70835219  .00049788  00000-0  31210-2 0  9995","MEAN_MOTION":"15.08878555","TLE_LINE2":"2 52541  53.2168  59.0607 0002562  79.1197 281.0084 15.08878555 44407","COUNTRY_CODE":"US","EPHEMERIS_TYPE":"0","APOAPSIS":"541.400","ECCENTRICITY":"0.00025620","TIME_SYSTEM":"UTC","ELEMENT_SET_NO":"999","EPOCH":"2023-02-27T17:00:01.629216"},{"PERIAPSIS":"538.826","LAUNCH_DATE":"2022-05-13","GP_ID":"227195471","RCS_SIZE":"LARGE","OBJECT_TYPE":"PAYLOAD","REV_AT_EPOCH":"4444","ARG_OF_PERICENTER":"77.4535","INCLINATION":"53.2157","CLASSIFICATION_TYPE":"U","REF_FRAME":"TEME","CENTER_NAME":"EARTH","MEAN_ELEMENT_THEORY":"SGP4","BSTAR":"0.00200260000000","NORAD_CAT_ID":"52542","OBJECT_NAME":"STARLINK-3937","MEAN_MOTION_DOT":"0.00031760","MEAN_MOTION_DDOT":"0.0000000000000","OBJECT_ID":"2022-051K","MEAN_ANOMALY":"282.6587","SITE":"AFWTR","FILE":"3846812","DECAY_DATE":null,"PERIOD":"95.435","TLE_LINE1":"1 52542U 22051K   23058.47144802  .00031760  00000-0  20026-2 0  9995","RA_OF_ASC_NODE":"55.1326","SEMIMAJOR_AXIS":"6917.766","TLE_LINE2":"2 52542  53.2157  55.1326 0001163  77.4535 282.6587 15.08877518 44441","MEAN_MOTION":"15.08877518","APOAPSIS":"540.435","COUNTRY_CODE":"US","EPHEMERIS_TYPE":"0","ECCENTRICITY":"0.00011630","EPOCH":"2023-02-27T11:18:53.108928","ELEMENT_SET_NO":"999","TIME_SYSTEM":"UTC"},{"OBJECT_NAME":"STARLINK-3926","MEAN_MOTION_DOT":"0.00044459","OBJECT_ID":"2022-051L","MEAN_MOTION_DDOT":"0.0000000000000","MEAN_ELEMENT_THEORY":"SGP4","REF_FRAME":"TEME","CENTER_NAME":"EARTH","BSTAR":"0.00278950000000","NORAD_CAT_ID":"52543","REV_AT_EPOCH":"4447","OBJECT_TYPE":"PAYLOAD","INCLINATION":"53.2166","ARG_OF_PERICENTER":"96.8553","CLASSIFICATION_TYPE":"U","PERIAPSIS":"538.605","LAUNCH_DATE":"2022-05-13","RCS_SIZE":"LARGE","GP_ID":"227196223","ECCENTRICITY":"0.00013880","TIME_SYSTEM":"UTC","EPOCH":"2023-02-27T16:20:55.778496","ELEMENT_SET_NO":"999","TLE_LINE2":"2 52543  53.2166  54.1834 0001388  96.8553 263.2597 15.08898988 44472","MEAN_MOTION":"15.08898988","EPHEMERIS_TYPE":"0","COUNTRY_CODE":"US","APOAPSIS":"540.525","PERIOD":"95.434","TLE_LINE1":"1 52543U 22051L   23058.68120114  .00044459  00000-0  27895-2 0  9999","SEMIMAJOR_AXIS":"6917.700","RA_OF_ASC_NODE":"54.1834","MEAN_ANOMALY":"263.2597","SITE":"AFWTR","FILE":"3846812","DECAY_DATE":null},{"SITE":"AFWTR","MEAN_ANOMALY":"340.0791","DECAY_DATE":null,"FILE":"3846812","PERIOD":"95.437","RA_OF_ASC_NODE":"59.1017","SEMIMAJOR_AXIS":"6917.842","TLE_LINE1":"1 52544U 22051M   23058.70097204  .00004841  00000-0  32194-3 0  9996","MEAN_MOTION":"15.08852640","TLE_LINE2":"2 52544  53.2167  59.1017 0004235  20.0367 340.0791 15.08852640 44406","APOAPSIS":"542.636","EPHEMERIS_TYPE":"0","COUNTRY_CODE":"US","ECCENTRICITY":"0.00042350","ELEMENT_SET_NO":"999","EPOCH":"2023-02-27T16:49:23.984256","TIME_SYSTEM":"UTC","LAUNCH_DATE":"2022-05-13","PERIAPSIS":"536.777","GP_ID":"227195974","RCS_SIZE":"MEDIUM","ARG_OF_PERICENTER":"20.0367","INCLINATION":"53.2167","OBJECT_TYPE":"PAYLOAD","REV_AT_EPOCH":"4440","CLASSIFICATION_TYPE":"U","BSTAR":"0.00032194000000","CENTER_NAME":"EARTH","MEAN_ELEMENT_THEORY":"SGP4","REF_FRAME":"TEME","NORAD_CAT_ID":"52544","OBJECT_NAME":"STARLINK-3944","MEAN_MOTION_DDOT":"0.0000000000000","OBJECT_ID":"2022-051M","MEAN_MOTION_DOT":"0.00004841"},{"GP_ID":"227194723","RCS_SIZE":"LARGE","PERIAPSIS":"539.044","LAUNCH_DATE":"2022-05-13","CLASSIFICATION_TYPE":"U","ARG_OF_PERICENTER":"124.9906","INCLINATION":"53.2164","REV_AT_EPOCH":"4447","OBJECT_TYPE":"PAYLOAD","NORAD_CAT_ID":"52545","BSTAR":"0.00314220000000","CENTER_NAME":"EARTH","REF_FRAME":"TEME","MEAN_ELEMENT_THEORY":"SGP4","OBJECT_ID":"2022-051N","MEAN_MOTION_DDOT":"0.0000000000000","MEAN_MOTION_DOT":"0.00050139","OBJECT_NAME":"STARLINK-3939","DECAY_DATE":null,"FILE":"3846812","SITE":"AFWTR","MEAN_ANOMALY":"235.1162","SEMIMAJOR_AXIS":"6917.741","RA_OF_ASC_NODE":"54.2084","TLE_LINE1":"1 52545U 22051N   23058.67752442  .00050139  00000-0  31422-2 0  9998","PERIOD":"95.435","EPHEMERIS_TYPE":"0","COUNTRY_CODE":"US","APOAPSIS":"540.168","MEAN_MOTION":"15.08885591","TLE_LINE2":"2 52545  53.2164  54.2084 0000813 124.9906 235.1162 15.08885591 44479","TIME_SYSTEM":"UTC","EPOCH":"2023-02-27T16:15:38.109888","ELEMENT_SET_NO":"999","ECCENTRICITY":"0.00008130"},{"OBJECT_NAME":"STARLINK-3948","OBJECT_ID":"2022-051P","MEAN_MOTION_DDOT":"0.0000000000000","MEAN_MOTION_DOT":"0.00021503","BSTAR":"0.00136360000000","MEAN_ELEMENT_THEORY":"SGP4","CENTER_NAME":"EARTH","REF_FRAME":"TEME","NORAD_CAT_ID":"52546","ARG_OF_PERICENTER":"96.4304","INCLINATION":"53.2161","REV_AT_EPOCH":"4444","OBJECT_TYPE":"PAYLOAD","CLASSIFICATION_TYPE":"U","LAUNCH_DATE":"2022-05-13","PERIAPSIS":"538.713","GP_ID":"227194973","RCS_SIZE":"LARGE","ECCENTRICITY":"0.00013270","TIME_SYSTEM":"UTC","ELEMENT_SET_NO":"999","EPOCH":"2023-02-27T11:09:39.691872","MEAN_MOTION":"15.08877394","TLE_LINE2":"2 52546  53.2161  55.1532 0001327  96.4304 263.6839 15.08877394 44447","COUNTRY_CODE":"US","EPHEMERIS_TYPE":"0","APOAPSIS":"540.549","PERIOD":"95.435","SEMIMAJOR_AXIS":"6917.766","RA_OF_ASC_NODE":"55.1532","TLE_LINE1":"1 52546U 22051P   23058.46504273  .00021503  00000-0  13636-2 0  9993","SITE":"AFWTR","MEAN_ANOMALY":"263.6839","DECAY_DATE":null,"FILE":"3846812"},{"DECAY_DATE":null,"FILE":"3846812","SITE":"AFWTR","MEAN_ANOMALY":"259.0002","SEMIMAJOR_AXIS":"6917.925","RA_OF_ASC_NODE":"59.0798","TLE_LINE1":"1 52547U 22051Q   23058.70445839  .00013739  00000-0  87998-3 0  9998","PERIOD":"95.438","EPHEMERIS_TYPE":"0","COUNTRY_CODE":"US","APOAPSIS":"540.666","MEAN_MOTION":"15.08825537","TLE_LINE2":"2 52547  53.2148  59.0798 0001267 101.1132 259.0002 15.08825537 44405","TIME_SYSTEM":"UTC","EPOCH":"2023-02-27T16:54:25.204896","ELEMENT_SET_NO":"999","ECCENTRICITY":"0.00012670","GP_ID":"227195724","RCS_SIZE":"LARGE","LAUNCH_DATE":"2022-05-13","PERIAPSIS":"538.913","CLASSIFICATION_TYPE":"U","INCLINATION":"53.2148","ARG_OF_PERICENTER":"101.1132","REV_AT_EPOCH":"4440","OBJECT_TYPE":"PAYLOAD","NORAD_CAT_ID":"52547","BSTAR":"0.00087998000000","MEAN_ELEMENT_THEORY":"SGP4","REF_FRAME":"TEME","CENTER_NAME":"EARTH","OBJECT_ID":"2022-051Q","MEAN_MOTION_DDOT":"0.0000000000000","MEAN_MOTION_DOT":"0.00013739","OBJECT_NAME":"STARLINK-3869"}];
